{"spkid": "50746018", "covariance": {"epoch": "2457901.5", "labels": ["e", "q", "tp", "node", "peri", "i"], "elements": [{"units": null, "title": "eccentricity", "value": ".5478994694542302", "name": "e", "sigma": 6.38563419535358e-07, "label": "e"}, {"units": "au", "title": "perihelion distance", "value": ".3764136037721148", "sigma": 5.22577371633677e-07, "name": "q", "label": "q"}, {"label": "tp", "name": "tp", "sigma": 3.38087645252129e-05, "title": "time of perihelion passage", "value": "2457922.305272747178", "units": "TDB"}, {"units": "deg", "title": "longitude of the ascending node", "value": "350.1847375985561", "name": "om", "sigma": 1.09917333013206e-05, "label": "node"}, {"label": "peri", "units": "deg", "title": "argument of perihelion", "value": "29.79827661410325", "name": "w", "sigma": 1.8818059419045e-05}, {"label": "i", "units": "deg", "title": "inclination", "value": "12.07464044922533", "name": "i", "sigma": 2.46521137459789e-05}], "data": [["4.077632407686896E-13", "-3.336933283285828E-13", "1.964902360409767E-11", "1.591387938111048E-12", "-8.073998425765499E-12", "9.873917912578039E-12"], ["-3.336933283285828E-13", "2.730871093435624E-13", "-1.611005603150591E-11", "-1.298114254774802E-12", "6.596048154354938E-12", "-8.074664800597009E-12"], ["1.964902360409767E-11", "-1.611005603150591E-11", "1.143032558721297E-9", "1.756922503562714E-11", "-2.558836088928798E-10", "3.575838365687547E-10"], ["1.591387938111048E-12", "-1.298114254774802E-12", "1.756922503562714E-11", "1.208182009673603E-10", "-1.676246947450384E-10", "7.340072133374233E-11"], ["-8.073998425765499E-12", "6.596048154354938E-12", "-2.558836088928798E-10", "-1.676246947450384E-10", "3.541193602987065E-10", "-2.821981628603628E-10"], ["9.873917912578039E-12", "-8.074664800597009E-12", "3.575838365687547E-10", "7.340072133374233E-11", "-2.821981628603628E-10", "6.077267121446812E-10"]]}, "elements": [{"label": "e", "name": "e", "sigma": "6.3843E-7", "title": "eccentricity", "value": ".5478189054473319", "units": null}, {"label": "a", "value": ".8325530259410643", "title": "semi-major axis", "units": "au", "sigma": "1.9574E-8", "name": "a"}, {"units": "au", "value": ".3764647385431663", "title": "perihelion distance", "sigma": "5.2315E-7", "name": "q", "label": "q"}, {"units": "deg", "value": "12.07839938579736", "title": "inclination; angle with respect to x-y ecliptic plane", "name": "i", "sigma": "2.4613E-5", "label": "i"}, {"label": "node", "name": "om", "sigma": "1.1046E-5", "units": "deg", "value": "350.1168126457635", "title": "longitude of the ascending node"}, {"label": "peri", "sigma": "1.8998E-5", "name": "w", "units": "deg", "value": "29.8569535293961", "title": "argument of perihelion"}, {"sigma": ".0001936", "name": "ma", "units": "deg", "title": "mean anomaly", "value": "293.7841520841462", "label": "M"}, {"label": "tp", "units": "TDB", "value": "2461251.535893938505", "title": "time of perihelion passage", "sigma": ".000151", "name": "tp"}, {"label": "period", "value": "277.4701585217185", "title": "sidereal orbital period", "units": "d", "sigma": "9.7854E-6", "name": "per"}, {"label": "n", "units": "deg/d", "title": "mean motion", "value": "1.2974368195772", "name": "n", "sigma": "4.5756E-8"}, {"title": "aphelion distance", "value": "1.288641313338962", "units": "au", "sigma": "3.0297E-8", "name": "ad", "label": "Q"}], "epoch": "2461200.5"}